{
  "type": "FeatureCollection",
  "features": [
    {
      "type": "Feature",
      "properties": {
        "norad_id": 66340,
        "name": "STARLINK-35218",
        "group": "last-30-days",
        "lat": -40.61957404199346,
        "lon": -89.8181415083507,
        "alt_km": 416.1426272234903,
        "timestamp": "2025-12-06T03:35:00.471540+00:00",
        "meta_object_name": "STARLINK-35218",
        "meta_object_id": "2025-253X",
        "meta_epoch": "2025-12-05T03:18:43.891200",
        "meta_mean_motion": 15.50623866,
        "meta_eccentricity": 0.00020086,
        "meta_inclination": 43.0006,
        "meta_ra_of_asc_node": 29.1148,
        "meta_arg_of_pericenter": 276.9945,
        "meta_mean_anomaly": 83.0687,
        "meta_ephemeris_type": 0,
        "meta_classification_type": "U",
        "meta_norad_cat_id": 66340,
        "meta_element_set_no": 999,
        "meta_rev_at_epoch": 575,
        "meta_bstar": 0.0025259709,
        "meta_mean_motion_dot": 0.0015098,
        "meta_mean_motion_ddot": 0,
        "tle_line1": "1 66340U 25253X   25339.13800800  .00150980  00000+0  25260-2 0  9997",
        "tle_line2": "2 66340  43.0006  29.1148 0002008 276.9945  83.0687 15.50623866  5752"
      },
      "geometry": {
        "type": "Point",
        "coordinates": [
          -89.8181415083507,
          -40.61957404199346
        ]
      }
    },
    {
      "type": "Feature",
      "properties": {
        "norad_id": 66341,
        "name": "STARLINK-35522",
        "group": "last-30-days",
        "lat": 6.983816944298184,
        "lon": -164.1506927875151,
        "alt_km": 443.42550982055855,
        "timestamp": "2025-12-06T03:35:00.471550+00:00",
        "meta_object_name": "STARLINK-35522",
        "meta_object_id": "2025-253Y",
        "meta_epoch": "2025-12-05T06:00:02.000160",
        "meta_mean_motion": 15.4061582,
        "meta_eccentricity": 0.00013911,
        "meta_inclination": 43.0007,
        "meta_ra_of_asc_node": 28.5861,
        "meta_arg_of_pericenter": 301.4663,
        "meta_mean_anomaly": 274.4137,
        "meta_ephemeris_type": 0,
        "meta_classification_type": "U",
        "meta_norad_cat_id": 66341,
        "meta_element_set_no": 999,
        "meta_rev_at_epoch": 582,
        "meta_bstar": 0.0016584385,
        "meta_mean_motion_dot": 0.00069411,
        "meta_mean_motion_ddot": 0,
        "tle_line1": "1 66341U 25253Y   25339.25002315  .00069411  00000+0  16584-2 0  9993",
        "tle_line2": "2 66341  43.0007  28.5861 0001391 301.4663 274.4137 15.40615820  5828"
      },
      "geometry": {
        "type": "Point",
        "coordinates": [
          -164.1506927875151,
          6.983816944298184
        ]
      }
    },
    {
      "type": "Feature",
      "properties": {
        "norad_id": 66342,
        "name": "STARLINK-35535",
        "group": "last-30-days",
        "lat": 42.779907444915985,
        "lon": 120.35267031094463,
        "alt_km": 438.6288073336609,
        "timestamp": "2025-12-06T03:35:00.471561+00:00",
        "meta_object_name": "STARLINK-35535",
        "meta_object_id": "2025-253Z",
        "meta_epoch": "2025-12-05T06:00:02.000160",
        "meta_mean_motion": 15.40726114,
        "meta_eccentricity": 0.00019218,
        "meta_inclination": 43.0003,
        "meta_ra_of_asc_node": 28.7621,
        "meta_arg_of_pericenter": 235.4739,
        "meta_mean_anomaly": 265.7603,
        "meta_ephemeris_type": 0,
        "meta_classification_type": "U",
        "meta_norad_cat_id": 66342,
        "meta_element_set_no": 999,
        "meta_rev_at_epoch": 572,
        "meta_bstar": -0.0015802598,
        "meta_mean_motion_dot": -0.00065808,
        "meta_mean_motion_ddot": 0,
        "tle_line1": "1 66342U 25253Z   25339.25002315 -.00065808  00000+0 -15803-2 0  9995",
        "tle_line2": "2 66342  43.0003  28.7621 0001921 235.4739 265.7603 15.40726114  5729"
      },
      "geometry": {
        "type": "Point",
        "coordinates": [
          120.35267031094463,
          42.779907444915985
        ]
      }
    },
    {
      "type": "Feature",
      "properties": {
        "norad_id": 66343,
        "name": "STARLINK-35467",
        "group": "last-30-days",
        "lat": 35.32130107178399,
        "lon": 73.16591291479838,
        "alt_km": 439.418800778064,
        "timestamp": "2025-12-06T03:35:00.471587+00:00",
        "meta_object_name": "STARLINK-35467",
        "meta_object_id": "2025-253AA",
        "meta_epoch": "2025-12-05T03:59:44.849184",
        "meta_mean_motion": 15.4069433,
        "meta_eccentricity": 0.00023831,
        "meta_inclination": 43.002,
        "meta_ra_of_asc_node": 29.335,
        "meta_arg_of_pericenter": 256.3336,
        "meta_mean_anomaly": 103.7255,
        "meta_ephemeris_type": 0,
        "meta_classification_type": "U",
        "meta_norad_cat_id": 66343,
        "meta_element_set_no": 999,
        "meta_rev_at_epoch": 575,
        "meta_bstar": 0.0019501814,
        "meta_mean_motion_dot": 0.00082028,
        "meta_mean_motion_ddot": 0,
        "tle_line1": "1 66343U 25253AA  25339.16649131  .00082028  00000+0  19502-2 0  9990",
        "tle_line2": "2 66343  43.0020  29.3350 0002383 256.3336 103.7255 15.40694330  5754"
      },
      "geometry": {
        "type": "Point",
        "coordinates": [
          73.16591291479838,
          35.32130107178399
        ]
      }
    },
    {
      "type": "Feature",
      "properties": {
        "norad_id": 66344,
        "name": "STARLINK-35511",
        "group": "last-30-days",
        "lat": -42.97908062448399,
        "lon": -67.44946226783776,
        "alt_km": 417.3226203598206,
        "timestamp": "2025-12-06T03:35:00.471600+00:00",
        "meta_object_name": "STARLINK-35511",
        "meta_object_id": "2025-253AB",
        "meta_epoch": "2025-12-04T10:13:55.829568",
        "meta_mean_motion": 15.50597049,
        "meta_eccentricity": 0.0001448,
        "meta_inclination": 43.0011,
        "meta_ra_of_asc_node": 33.2328,
        "meta_arg_of_pericenter": 274.0444,
        "meta_mean_anomaly": 86.0251,
        "meta_ephemeris_type": 0,
        "meta_classification_type": "U",
        "meta_norad_cat_id": 66344,
        "meta_element_set_no": 999,
        "meta_rev_at_epoch": 564,
        "meta_bstar": 0.00014218,
        "meta_mean_motion_dot": 8.013e-05,
        "meta_mean_motion_ddot": 0,
        "tle_line1": "1 66344U 25253AB  25338.42634062  .00008013  00000+0  14218-3 0  9998",
        "tle_line2": "2 66344  43.0011  33.2328 0001448 274.0444  86.0251 15.50597049  5649"
      },
      "geometry": {
        "type": "Point",
        "coordinates": [
          -67.44946226783776,
          -42.97908062448399
        ]
      }
    },
    {
      "type": "Feature",
      "properties": {
        "norad_id": 66345,
        "name": "STARLINK-35440",
        "group": "last-30-days",
        "lat": -1.5164959726117555,
        "lon": -155.005407674846,
        "alt_km": 443.8356140758915,
        "timestamp": "2025-12-06T03:35:00.471611+00:00",
        "meta_object_name": "STARLINK-35440",
        "meta_object_id": "2025-253AC",
        "meta_epoch": "2025-12-05T06:00:02.000160",
        "meta_mean_motion": 15.40625252,
        "meta_eccentricity": 0.00010041,
        "meta_inclination": 43.0008,
        "meta_ra_of_asc_node": 28.5498,
        "meta_arg_of_pericenter": 254.7636,
        "meta_mean_anomaly": 333.6402,
        "meta_ephemeris_type": 0,
        "meta_classification_type": "U",
        "meta_norad_cat_id": 66345,
        "meta_element_set_no": 999,
        "meta_rev_at_epoch": 572,
        "meta_bstar": 0.0011799878,
        "meta_mean_motion_dot": 0.00049183,
        "meta_mean_motion_ddot": 0,
        "tle_line1": "1 66345U 25253AC  25339.25002315  .00049183  00000+0  11800-2 0  9997",
        "tle_line2": "2 66345  43.0008  28.5498 0001004 254.7636 333.6402 15.40625252  5722"
      },
      "geometry": {
        "type": "Point",
        "coordinates": [
          -155.005407674846,
          -1.5164959726117555
        ]
      }
    },
    {
      "type": "Feature",
      "properties": {
        "norad_id": 66346,
        "name": "STARLINK-35482",
        "group": "last-30-days",
        "lat": -32.51525012360581,
        "lon": -113.59207879509961,
        "alt_km": 444.24386723445787,
        "timestamp": "2025-12-06T03:35:00.471622+00:00",
        "meta_object_name": "STARLINK-35482",
        "meta_object_id": "2025-253AD",
        "meta_epoch": "2025-12-05T06:00:02.000160",
        "meta_mean_motion": 15.45221306,
        "meta_eccentricity": 0.00010512,
        "meta_inclination": 43.0008,
        "meta_ra_of_asc_node": 28.4501,
        "meta_arg_of_pericenter": 261.0081,
        "meta_mean_anomaly": 8.9579,
        "meta_ephemeris_type": 0,
        "meta_classification_type": "U",
        "meta_norad_cat_id": 66346,
        "meta_element_set_no": 999,
        "meta_rev_at_epoch": 582,
        "meta_bstar": -0.047860482,
        "meta_mean_motion_dot": -0.02067847,
        "meta_mean_motion_ddot": 0,
        "tle_line1": "1 66346U 25253AD  25339.25002315 -.02067847  00000+0 -47860-1 0  9993",
        "tle_line2": "2 66346  43.0008  28.4501 0001051 261.0081   8.9579 15.45221306  5829"
      },
      "geometry": {
        "type": "Point",
        "coordinates": [
          -113.59207879509961,
          -32.51525012360581
        ]
      }
    }
  ]
}